NORAD_CAT_ID,OBJECT_NAME,OBJECT_TYPE,EPOCH,MEAN_MOTION,ECCENTRICITY,INCLINATION,RA_OF_ASC_NODE,ARG_OF_PERICENTER,MEAN_ANOMALY,BSTAR,MEAN_MOTION_DOT,MEAN_MOTION_DDOT,TLE_LINE0,TLE_LINE1,TLE_LINE2,SEMIMAJOR_AXIS,PERIOD,APOGEE,PERIGEE,DECAYED
54073.0,STARLINK-5146,PAYLOAD,2023-12-29 08:20:48,15.08842601,0.0001501,53.2182,336.1419,100.8774,259.2387,0.00021881,3.196e-05,0.0,0 STARLINK-5146,1 54073U 22136Y   23363.34778155  .00003196  00000-0  21881-3 0  9992,2 54073  53.2182 336.1419 0001501 100.8774 259.2387 15.08842601 66422,6917.872,95.437,540.776,538.699,0.0
54073.0,STARLINK-5146,PAYLOAD,2023-12-30 03:25:26,15.08839859,0.0001546,53.2188,332.5721,99.6733,260.4434,0.00010692,1.414e-05,0.0,0 STARLINK-5146,1 54073U 22136Y   23364.14266284  .00001414  00000-0  10692-3 0  9995,2 54073  53.2188 332.5721 0001546  99.6733 260.4434 15.08839859 66544,6917.881,95.438,540.815,538.676,0.0
54073.0,STARLINK-5146,PAYLOAD,2023-12-30 22:30:03,15.08837798,0.0001659,53.2186,329.0041,109.3049,250.8123,5.959e-05,6.6e-06,0.0,0 STARLINK-5146,1 54073U 22136Y   23364.93754407  .00000660  00000-0  59590-4 0  9994,2 54073  53.2186 329.0041 0001659 109.3049 250.8123 15.08837798 66180,6917.887,95.438,540.9,538.604,0.0
54073.0,STARLINK-5146,PAYLOAD,2023-12-31 08:02:22,15.08843691,0.0001407,53.2195,327.2236,109.9294,250.185,8.49e-05,1.064e-05,0.0,0 STARLINK-5146,1 54073U 22136Y   23365.33498271  .00001064  00000-0  84900-4 0  9995,2 54073  53.2195 327.2236 0001407 109.9294 250.1850 15.08843691 66724,6917.869,95.437,540.707,538.761,0.0
54073.0,STARLINK-5146,PAYLOAD,2024-01-01 03:07:00,15.08839768,0.0001403,53.2191,323.6549,104.5164,255.5984,4.0926e-05,3.63e-06,0.0,0 STARLINK-5146,1 54073U 22136Y   24001.12986797  .00000363  00000-0  40926-4 0  9996,2 54073  53.2191 323.6549 0001403 104.5164 255.5984 15.08839768 66840,6917.881,95.438,540.717,538.776,0.0
54073.0,STARLINK-5146,PAYLOAD,2024-01-01 06:17:46,15.08840497,0.000146,53.2195,323.0592,94.726,265.3899,0.00011492,1.541e-05,0.0,0 STARLINK-5146,1 54073U 22136Y   24001.26234654  .00001541  00000-0  11492-3 0  9993,2 54073  53.2195 323.0592 0001460  94.7260 265.3899 15.08840497 66380,6917.879,95.438,540.754,538.734,0.0
54073.0,STARLINK-5146,PAYLOAD,2024-01-02 04:33:11,15.0884037,0.000157,53.2199,318.8963,75.6849,284.4317,9.0445e-05,1.152e-05,0.0,0 STARLINK-5146,1 54073U 22136Y   24002.18971107  .00001152  00000-0  90445-4 0  9990,2 54073  53.2199 318.8963 0001570  75.6849 284.4317 15.08840370 67008,6917.879,95.438,540.83,538.658,0.0
54073.0,STARLINK-5146,PAYLOAD,2024-01-02 06:08:34,15.08841723,0.0001544,53.2199,318.6017,81.8544,278.2623,9.1746e-05,1.173e-05,0.0,0 STARLINK-5146,1 54073U 22136Y   24002.25595009  .00001173  00000-0  91746-4 0  9999,2 54073  53.2199 318.6017 0001544  81.8544 278.2623 15.08841723 66539,6917.875,95.437,540.808,538.672,0.0
54073.0,STARLINK-5146,PAYLOAD,2024-01-03 02:48:34,15.088507,0.0001563,53.219,314.736,79.7398,280.3771,0.00013724,1.897e-05,0.0,0 STARLINK-5146,1 54073U 22136Y   24003.11706213  .00001897  00000-0  13724-3 0  9998,2 54073  53.2190 314.7360 0001563  79.7398 280.3771 15.08850700 67143,6917.848,95.437,540.794,538.631,0.0
54073.0,STARLINK-5146,PAYLOAD,2024-01-03 05:59:20,15.08855763,0.0001533,53.2183,314.1392,84.1836,275.9331,0.00026356,3.911e-05,0.0,0 STARLINK-5146,1 54073U 22136Y   24003.24953978  .00003911  00000-0  26356-3 0  9998,2 54073  53.2183 314.1392 0001533  84.1836 275.9331 15.08855763 66682,6917.832,95.437,540.758,538.637,0.0
54073.0,STARLINK-5146,PAYLOAD,2024-01-04 02:39:21,15.08842222,0.0001752,53.2178,310.2716,119.8101,240.3066,6.9629e-06,-1.77e-06,0.0,0 STARLINK-5146,1 54073U 22136Y   24004.11066509 -.00000177  00000-0  69629-5 0  9994,2 54073  53.2178 310.2716 0001752 119.8101 240.3066 15.08842222 67292,6917.874,95.437,540.951,538.527,0.0
54073.0,STARLINK-5146,PAYLOAD,2024-01-04 20:08:35,15.08848017,0.0001728,53.2185,307.0023,113.585,246.5323,-3.2215e-06,-3.39e-06,0.0,0 STARLINK-5146,1 54073U 22136Y   24004.83930293 -.00000339  00000-0 -32215-5 0  9995,2 54073  53.2185 307.0023 0001728 113.5850 246.5323 15.08848017 66921,6917.856,95.437,540.916,538.525,0.0
54073.0,STARLINK-5146,PAYLOAD,2024-01-05 02:30:08,15.08853213,0.0001633,53.2177,305.8145,94.9677,265.1501,0.0001119,1.494e-05,0.0,0 STARLINK-5146,1 54073U 22136Y   24005.10426001  .00001494  00000-0  11190-3 0  9991,2 54073  53.2177 305.8145 0001633  94.9677 265.1501 15.08853213 67444,6917.84,95.437,540.835,538.575,0.0
54073.0,STARLINK-5146,PAYLOAD,2024-01-05 05:40:54,15.0885679,0.0001533,53.217,305.2188,94.4639,265.6528,0.00018998,2.738e-05,0.0,0 STARLINK-5146,1 54073U 22136Y   24005.23673770  .00002738  00000-0  18998-3 0  9997,2 54073  53.2170 305.2188 0001533  94.4639 265.6528 15.08856790 66985,6917.829,95.436,540.755,538.634,0.0
54073.0,STARLINK-5146,PAYLOAD,2024-01-06 02:20:55,15.08841542,0.0001429,53.2178,301.3448,101.0232,259.0921,2.2783e-05,7.5e-07,0.0,0 STARLINK-5146,1 54073U 22136Y   24006.09786485  .00000075  00000-0  22783-4 0  9990,2 54073  53.2178 301.3448 0001429 101.0232 259.0921 15.08841542 67598,6917.876,95.437,540.729,538.752,0.0
54073.0,STARLINK-5146,PAYLOAD,2024-01-06 05:31:41,15.08841238,0.0001587,53.2181,300.7579,98.428,261.6892,0.00011494,1.542e-05,0.0,0 STARLINK-5146,1 54073U 22136Y   24006.23034701  .00001542  00000-0  11494-3 0  9999,2 54073  53.2181 300.7579 0001587  98.4280 261.6892 15.08841238 67135,6917.877,95.437,540.839,538.644,0.0
54073.0,STARLINK-5146,PAYLOAD,2024-01-07 05:22:29,15.08840299,0.0001555,53.2181,296.2958,103.1941,256.9225,1.8766e-06,-2.58e-06,0.0,0 STARLINK-5146,1 54073U 22136Y   24007.22394868 -.00000258  00000-0  18766-5 0  9997,2 54073  53.2181 296.2958 0001555 103.1941 256.9225 15.08840299 67760,6917.879,95.438,540.82,538.669,0.0
54073.0,STARLINK-5146,PAYLOAD,2024-01-07 22:51:43,15.08839647,0.0001571,53.2183,293.0247,96.8868,263.2303,0.00013779,1.906e-05,0.0,0 STARLINK-5146,1 54073U 22136Y   24007.95259124  .00001906  00000-0  13779-3 0  9999,2 54073  53.2183 293.0247 0001571  96.8868 263.2303 15.08839647 67394,6917.881,95.438,540.833,538.66,0.0
54073.0,STARLINK-5146,PAYLOAD,2024-01-08 05:13:16,15.0884379,0.0001605,53.2182,291.8356,97.2039,262.9136,0.00018127,2.598e-05,0.0,0 STARLINK-5146,1 54073U 22136Y   24008.21754929  .00002598  00000-0  18127-3 0  9992,2 54073  53.2182 291.8356 0001605  97.2039 262.9136 15.08843790 67432,6917.869,95.437,540.844,538.623,0.0
54073.0,STARLINK-5146,PAYLOAD,2024-01-08 22:42:31,15.08837858,0.0001624,53.2181,288.5638,100.9147,259.2028,6.1317e-05,6.88e-06,0.0,0 STARLINK-5146,1 54073U 22136Y   24008.94619343  .00000688  00000-0  61317-4 0  9990,2 54073  53.2181 288.5638 0001624 100.9147 259.2028 15.08837858 67549,6917.887,95.438,540.875,538.628,0.0
54073.0,STARLINK-5146,PAYLOAD,2024-01-09 01:53:17,15.08839802,0.0001532,53.2177,287.9696,92.4024,267.7143,8.0748e-05,9.97e-06,0.0,0 STARLINK-5146,1 54073U 22136Y   24009.07867295  .00000997  00000-0  80748-4 0  9998,2 54073  53.2177 287.9696 0001532  92.4024 267.7143 15.08839802 68047,6917.881,95.438,540.806,538.686,0.0
54073.0,STARLINK-5146,PAYLOAD,2024-01-09 22:33:17,15.08844153,0.0001586,53.2177,284.103,89.357,270.7604,7.7196e-05,9.41e-06,0.0,0 STARLINK-5146,1 54073U 22136Y   24009.93979107  .00000941  00000-0  77196-4 0  9991,2 54073  53.2177 284.1030 0001586  89.3570 270.7604 15.08844153 67699,6917.868,95.437,540.83,538.636,0.0
54073.0,STARLINK-5146,PAYLOAD,2024-01-10 03:19:27,15.08851271,0.0001686,53.2181,283.2104,82.0714,278.0469,0.00021256,3.097e-05,0.0,0 STARLINK-5146,1 54073U 22136Y   24010.13850803  .00003097  00000-0  21256-3 0  9996,2 54073  53.2181 283.2104 0001686  82.0714 278.0469 15.08851271 68204,6917.846,95.437,540.877,538.545,0.0
54073.0,STARLINK-5146,PAYLOAD,2024-01-10 17:37:56,15.08840304,0.000226,53.2171,280.5417,78.8137,281.3109,0.00013467,1.856e-05,0.0,0 STARLINK-5146,1 54073U 22136Y   24010.73467704  .00001856  00000-0  13467-3 0  9992,2 54073  53.2171 280.5417 0002260  78.8137 281.3109 15.08840304 68293,6917.879,95.438,541.308,538.181,0.0
54073.0,STARLINK-5146,PAYLOAD,2024-01-11 03:10:14,15.08846111,0.0001688,53.2175,278.7545,88.9361,271.1825,0.00019898,2.881e-05,0.0,0 STARLINK-5146,1 54073U 22136Y   24011.13211386  .00002881  00000-0  19898-3 0  9993,2 54073  53.2175 278.7545 0001688  88.9361 271.1825 15.08846111 67879,6917.862,95.437,540.894,538.559,0.0
54073.0,STARLINK-5146,PAYLOAD,2024-01-11 22:14:52,15.08847118,0.0001467,53.2161,275.1837,117.062,243.0522,0.00015629,2.201e-05,0.0,0 STARLINK-5146,1 54073U 22136Y   24011.92699090  .00002201  00000-0  15629-3 0  9996,2 54073  53.2161 275.1837 0001467 117.0620 243.0522 15.08847118 67999,6917.859,95.437,540.738,538.709,0.0
54073.0,STARLINK-5146,PAYLOAD,2024-01-12 03:01:01,15.08851395,0.0001609,53.2158,274.2905,120.3151,239.8001,0.00024599,3.63e-05,0.0,0 STARLINK-5146,1 54073U 22136Y   24012.12570839  .00003630  00000-0  24599-3 0  9991,2 54073  53.2158 274.2905 0001609 120.3151 239.8001 15.08851395 68500,6917.846,95.437,540.824,538.597,0.0
54073.0,STARLINK-5146,PAYLOAD,2024-01-12 22:05:39,15.08835794,0.0001466,53.2158,270.7235,107.2198,252.8955,1.6475e-05,-2.6e-07,0.0,0 STARLINK-5146,1 54073U 22136Y   24012.92059928 -.00000026  00000-0  16475-4 0  9992,2 54073  53.2158 270.7235 0001466 107.2198 252.8955 15.08835794 68141,6917.893,95.438,540.772,538.744,0.0
54073.0,STARLINK-5146,PAYLOAD,2024-01-13 02:51:49,15.08837318,0.0001414,53.216,269.8311,105.5921,254.5227,4.1277e-05,3.69e-06,0.0,0 STARLINK-5146,1 54073U 22136Y   24013.11931907  .00000369  00000-0  41277-4 0  9997,2 54073  53.2160 269.8311 0001414 105.5921 254.5227 15.08837318 68657,6917.889,95.438,540.732,538.775,0.0
54073.0,STARLINK-5146,PAYLOAD,2024-01-14 02:42:35,15.08850383,0.0001353,53.2159,265.3711,105.5025,254.6117,0.00035103,5.305e-05,0.0,0 STARLINK-5146,1 54073U 22136Y   24014.11291577  .00005305  00000-0  35103-3 0  9995,2 54073  53.2159 265.3711 0001353 105.5025 254.6117 15.08850383 68800,6917.849,95.437,540.65,538.778,0.0
